[{"OBJECT_NAME":"OBJECT G","OBJECT_ID":"2025-155G","EPOCH":"2026-03-09T22:09:56.639808","MEAN_MOTION":15.27590702,"ECCENTRICITY":0.00081871,"INCLINATION":97.4488,"RA_OF_ASC_NODE":37.3259,"ARG_OF_PERICENTER":154.1528,"MEAN_ANOMALY":206.0122,"EPHEMERIS_TYPE":0,"CLASSIFICATION_TYPE":"U","NORAD_CAT_ID":64882,"ELEMENT_SET_NO":999,"REV_AT_EPOCH":6559,"BSTAR":0.0004792617,"MEAN_MOTION_DOT":0.00012876,"MEAN_MOTION_DDOT":0},{"OBJECT_NAME":"STARLINK-35514","OBJECT_ID":"2025-265V","EPOCH":"2026-03-09T21:51:41.463648","MEAN_MOTION":15.27594741,"ECCENTRICITY":0.00012591,"INCLINATION":43.0012,"RA_OF_ASC_NODE":276.9943,"ARG_OF_PERICENTER":286.7395,"MEAN_ANOMALY":73.3319,"EPHEMERIS_TYPE":0,"CLASSIFICATION_TYPE":"U","NORAD_CAT_ID":66535,"ELEMENT_SET_NO":999,"REV_AT_EPOCH":1714,"BSTAR":0.0012764367,"MEAN_MOTION_DOT":0.00035045,"MEAN_MOTION_DDOT":0}]
